*******************************************************************************
Ephemeris / WWW_USER Fri Mar  7 10:59:59 2025 Pasadena, USA      / Horizons    
*******************************************************************************
Target body name: (2018 TZ5)                      {source: JPL#13}
Center body name: Earth (399)                     {source: DE441}
Center-site name: Mauna Kea
*******************************************************************************
Start time      : A.D. 2018-Sep-04 04:44:00.0000 UT      
Stop  time      : A.D. 2018-Sep-04 15:57:00.0000 UT      
Step-size       : 1 minutes
*******************************************************************************
Target pole/equ : undefined
Target radii    : undefined                                                    
Center geodetic : 204.5278, 19.8260847, 4.21024   {E-lon(deg),Lat(deg),Alt(km)}
Center cylindric: 204.5278, 6006.35451, 2151.0229 {E-lon(deg),Dxy(km),Dz(km)}
Center pole/equ : ITRF93                          {East-longitude positive}
Center radii    : 6378.137, 6378.137, 6356.752 km {Equator_a, b, pole_c}       
Target primary  : Sun
Vis. interferer : MOON (R_eq= 1737.400) km        {source: DE441}
Rel. light bend : Sun                             {source: DE441}
Rel. lght bnd GM: 1.3271E+11 km^3/s^2                                          
Small-body perts: Yes                             {source: SB441-N16}
Atmos refraction: NO (AIRLESS)
RA format       : HMS
Time format     : CAL 
Calendar mode   : Mixed Julian/Gregorian
RTS-only print  : NO       
EOP file        : eop.250306.p250602                                           
EOP coverage    : DATA-BASED 1962-JAN-20 TO 2025-MAR-06. PREDICTS-> 2025-JUN-01
Units conversion: 1 au= 149597870.700 km, c= 299792.458 km/s, 1 day= 86400.0 s 
Table cut-offs 1: Elevation (-90.0deg=NO ),Airmass (>38.000=NO), Daylight (YES)
Table cut-offs 2: Solar elongation (  0.0,180.0=NO ),Local Hour Angle( 0.0=NO )
Table cut-offs 3: RA/DEC angular rate (     0.0=NO )                           
*******************************************************************************
Initial IAU76/J2000 heliocentric ecliptic osculating elements (au, days, deg.):
  EPOCH=  2458421.5 ! 2018-Oct-30.00 (TDB)         Residual RMS= .3052         
   EC= .5505022016549632   QR= .8932716909804733   TP= 2458367.6074299323      
   OM= 132.9772150011661   W=  197.0626448515302   IN= 1.165364587967566       
  Equivalent ICRF heliocentric cartesian coordinates (au, au/d):
   X= 9.139681807821705E-01  Y= 6.232256283970929E-01  Z= 2.452583568287751E-01
  VX=-4.619682259947144E-03 VY= 1.729028462648113E-02 VZ= 7.287606215643615E-03
Asteroid physical parameters (km, seconds, rotational period in hours):        
   GM= n.a.                RAD= n.a.               ROTPER= n.a.                
   H= 24.4                 G= .150                 B-V= n.a.                   
                           ALBEDO= n.a.            STYP= n.a.                  
*******************************************************************************
 Date__(UT)__HR:MN     R.A._________(ICRF)_________DEC
******************************************************
$$SOE
 2018-Sep-04 08:50     14 22 21.731938 -15 09 40.65688
 2018-Sep-04 08:51     14 22 21.791169 -15 09 41.23457
 2018-Sep-04 08:52     14 22 21.850440 -15 09 41.81230
 2018-Sep-04 08:53     14 22 21.909752 -15 09 42.39008
 2018-Sep-04 08:54     14 22 21.969104 -15 09 42.96791
 2018-Sep-04 08:55     14 22 22.028497 -15 09 43.54579
 2018-Sep-04 08:56     14 22 22.087930 -15 09 44.12373
 2018-Sep-04 08:57     14 22 22.147403 -15 09 44.70171
 2018-Sep-04 08:58     14 22 22.206917 -15 09 45.27975
 2018-Sep-04 08:59     14 22 22.266470 -15 09 45.85784
 2018-Sep-04 09:00     14 22 22.326064 -15 09 46.43599
 2018-Sep-04 09:01     14 22 22.385698 -15 09 47.01419
 2018-Sep-04 09:02     14 22 22.445372 -15 09 47.59245
 2018-Sep-04 09:03     14 22 22.505086 -15 09 48.17076
 2018-Sep-04 09:04     14 22 22.564840 -15 09 48.74913
 2018-Sep-04 09:05     14 22 22.624634 -15 09 49.32756
 2018-Sep-04 09:06     14 22 22.684467 -15 09 49.90605
 2018-Sep-04 09:07     14 22 22.744341 -15 09 50.48459
 2018-Sep-04 09:08     14 22 22.804254 -15 09 51.06320
 2018-Sep-04 09:09     14 22 22.864207 -15 09 51.64186
 2018-Sep-04 09:10     14 22 22.924199 -15 09 52.22059
 2018-Sep-04 09:11     14 22 22.984231 -15 09 52.79937
 2018-Sep-04 09:12     14 22 23.044302 -15 09 53.37822
 2018-Sep-04 09:13     14 22 23.104413 -15 09 53.95714
 2018-Sep-04 09:14     14 22 23.164563 -15 09 54.53611
 2018-Sep-04 09:15     14 22 23.224753 -15 09 55.11515
 2018-Sep-04 09:16     14 22 23.284981 -15 09 55.69426
 2018-Sep-04 09:17     14 22 23.345249 -15 09 56.27343
 2018-Sep-04 09:18     14 22 23.405556 -15 09 56.85267
 2018-Sep-04 09:19     14 22 23.465902 -15 09 57.43197
 2018-Sep-04 09:20     14 22 23.526287 -15 09 58.01134
 2018-Sep-04 09:21     14 22 23.586711 -15 09 58.59078
 2018-Sep-04 09:22     14 22 23.647173 -15 09 59.17029
 2018-Sep-04 09:23     14 22 23.707675 -15 09 59.74987
 2018-Sep-04 09:24     14 22 23.768215 -15 10 00.32952
 2018-Sep-04 09:25     14 22 23.828793 -15 10 00.90924
 2018-Sep-04 09:26     14 22 23.889411 -15 10 01.48903
 2018-Sep-04 09:27     14 22 23.950066 -15 10 02.06890
 2018-Sep-04 09:28     14 22 24.010761 -15 10 02.64883
 2018-Sep-04 09:29     14 22 24.071493 -15 10 03.22884
 2018-Sep-04 09:30     14 22 24.132264 -15 10 03.80892
 2018-Sep-04 09:31     14 22 24.193073 -15 10 04.38908
 2018-Sep-04 09:32     14 22 24.253920 -15 10 04.96932
 2018-Sep-04 09:33     14 22 24.314805 -15 10 05.54963
 2018-Sep-04 09:34     14 22 24.375728 -15 10 06.13001
 2018-Sep-04 09:35     14 22 24.436689 -15 10 06.71048
 2018-Sep-04 09:36     14 22 24.497688 -15 10 07.29102
 2018-Sep-04 09:37     14 22 24.558724 -15 10 07.87164
 2018-Sep-04 09:38     14 22 24.619798 -15 10 08.45234
 2018-Sep-04 09:39     14 22 24.680910 -15 10 09.03312
 2018-Sep-04 09:40     14 22 24.742059 -15 10 09.61398
 2018-Sep-04 09:41     14 22 24.803246 -15 10 10.19492
 2018-Sep-04 09:42     14 22 24.864470 -15 10 10.77594
 2018-Sep-04 09:43     14 22 24.925731 -15 10 11.35704
 2018-Sep-04 09:44     14 22 24.987029 -15 10 11.93823
 2018-Sep-04 09:45     14 22 25.048365 -15 10 12.51950
 2018-Sep-04 09:46     14 22 25.109737 -15 10 13.10086
 2018-Sep-04 09:47     14 22 25.171146 -15 10 13.68230
 2018-Sep-04 09:48     14 22 25.232592 -15 10 14.26383
 2018-Sep-04 09:49     14 22 25.294075 -15 10 14.84544
 2018-Sep-04 09:50     14 22 25.355595 -15 10 15.42714
 2018-Sep-04 09:51     14 22 25.417151 -15 10 16.00892
 2018-Sep-04 09:52     14 22 25.478743 -15 10 16.59080
 2018-Sep-04 09:53     14 22 25.540372 -15 10 17.17276
 2018-Sep-04 09:54     14 22 25.602037 -15 10 17.75481
 2018-Sep-04 09:55     14 22 25.663738 -15 10 18.33696
 2018-Sep-04 09:56     14 22 25.725476 -15 10 18.91919
 2018-Sep-04 09:57     14 22 25.787249 -15 10 19.50151
 2018-Sep-04 09:58     14 22 25.849058 -15 10 20.08393
 2018-Sep-04 09:59     14 22 25.910903 -15 10 20.66643
 2018-Sep-04 10:00     14 22 25.972784 -15 10 21.24903
 2018-Sep-04 10:01     14 22 26.034701 -15 10 21.83173
 2018-Sep-04 10:02     14 22 26.096652 -15 10 22.41452
 2018-Sep-04 10:03     14 22 26.158640 -15 10 22.99740
 2018-Sep-04 10:04     14 22 26.220663 -15 10 23.58038
 2018-Sep-04 10:05     14 22 26.282720 -15 10 24.16345
 2018-Sep-04 10:06     14 22 26.344814 -15 10 24.74662
 2018-Sep-04 10:07     14 22 26.406942 -15 10 25.32989
 2018-Sep-04 10:08     14 22 26.469105 -15 10 25.91325
 2018-Sep-04 10:09     14 22 26.531302 -15 10 26.49671
 2018-Sep-04 10:10     14 22 26.593535 -15 10 27.08027
 2018-Sep-04 10:11     14 22 26.655802 -15 10 27.66394
 2018-Sep-04 10:12     14 22 26.718104 -15 10 28.24770
 2018-Sep-04 10:13     14 22 26.780440 -15 10 28.83156
 2018-Sep-04 10:14     14 22 26.842810 -15 10 29.41552
 2018-Sep-04 10:15     14 22 26.905215 -15 10 29.99959
 2018-Sep-04 10:16     14 22 26.967654 -15 10 30.58375
 2018-Sep-04 10:17     14 22 27.030127 -15 10 31.16802
 2018-Sep-04 10:18     14 22 27.092633 -15 10 31.75240
 2018-Sep-04 10:19     14 22 27.155174 -15 10 32.33687
 2018-Sep-04 10:20     14 22 27.217748 -15 10 32.92145
 2018-Sep-04 10:21     14 22 27.280355 -15 10 33.50614
 2018-Sep-04 10:22     14 22 27.342996 -15 10 34.09093
 2018-Sep-04 10:23     14 22 27.405671 -15 10 34.67583
 2018-Sep-04 10:24     14 22 27.468378 -15 10 35.26084
 2018-Sep-04 10:25     14 22 27.531119 -15 10 35.84595
 2018-Sep-04 10:26     14 22 27.593893 -15 10 36.43117
 2018-Sep-04 10:27     14 22 27.656699 -15 10 37.01650
 2018-Sep-04 10:28     14 22 27.719539 -15 10 37.60194
 2018-Sep-04 10:29     14 22 27.782411 -15 10 38.18749
 2018-Sep-04 10:30     14 22 27.845315 -15 10 38.77315
 2018-Sep-04 10:31     14 22 27.908253 -15 10 39.35892
 2018-Sep-04 10:32     14 22 27.971222 -15 10 39.94480
 2018-Sep-04 10:33     14 22 28.034223 -15 10 40.53079
 2018-Sep-04 10:34     14 22 28.097257 -15 10 41.11690
 2018-Sep-04 10:35     14 22 28.160323 -15 10 41.70312
 2018-Sep-04 10:36     14 22 28.223420 -15 10 42.28945
 2018-Sep-04 10:37     14 22 28.286549 -15 10 42.87590
 2018-Sep-04 10:38     14 22 28.349710 -15 10 43.46246
 2018-Sep-04 10:39     14 22 28.412902 -15 10 44.04913
 2018-Sep-04 10:40     14 22 28.476126 -15 10 44.63592
 2018-Sep-04 10:41     14 22 28.539381 -15 10 45.22283
 2018-Sep-04 10:42     14 22 28.602667 -15 10 45.80985
 2018-Sep-04 10:43     14 22 28.665983 -15 10 46.39700
 2018-Sep-04 10:44     14 22 28.729331 -15 10 46.98425
 2018-Sep-04 10:45  m  14 22 28.792710 -15 10 47.57163
 2018-Sep-04 10:46  m  14 22 28.856119 -15 10 48.15913
 2018-Sep-04 10:47  m  14 22 28.919559 -15 10 48.74674
 2018-Sep-04 10:48  m  14 22 28.983029 -15 10 49.33448
 2018-Sep-04 10:49  m  14 22 29.046529 -15 10 49.92233
 2018-Sep-04 10:50  m  14 22 29.110059 -15 10 50.51031
 2018-Sep-04 10:51  m  14 22 29.173620 -15 10 51.09841
 2018-Sep-04 10:52  m  14 22 29.237210 -15 10 51.68663
